ONEWEB-0324             
1 49193U 21083H   26009.25039202 -.00000090  00000+0 -26211-3 0  9995
2 49193  87.9178   7.0046 0001675  92.7304 267.4020 13.18684469209056
ONEWEB-0325             
1 49194U 21083J   26009.25368491  .00000011  00000+0 -49050-5 0  9991
2 49194  87.9179   7.0234 0001783  85.6632 274.4704 13.18685594209060
ONEWEB-0326             
1 49195U 21083K   26009.26867985  .00000067  00000+0  13836-3 0  9996
2 49195  87.9179   7.0073 0002064  89.5091 270.6278 13.18685373209055
ONEWEB-0327             
1 49196U 21083L   26009.04077625  .00000019  00000+0  15128-4 0  9991
2 49196  87.9170   7.0697 0002127  86.8304 273.3072 13.18684981209041
ONEWEB-0328             
1 49197U 21083M   26009.23878960  .00000373  00000+0  98720-3 0  9995
2 49197  87.8998 351.7895 0001671  88.7117 271.4203 13.13470222210036
ONEWEB-0331             
1 49198U 21083N   26009.26193472  .00000034  00000+0  52738-4 0  9991
2 49198  87.9180   7.0014 0002015  96.1109 264.0253 13.18684393209067
ONEWEB-0333             
1 49199U 21083P   26009.30988961  .00000252  00000+0  65524-3 0  9990
2 49199  87.8980 351.8239 0001782  83.5055 276.6277 13.13469778210053
ONEWEB-0334             
1 49200U 21083Q   26009.28054633  .00000094  00000+0  19976-3 0  9994
2 49200  87.9221 306.1570 0001651  43.3986 316.7277 13.20771082215815
ONEWEB-0335             
1 49201U 21083R   26009.30481325  .00000127  00000+0  31378-3 0  9997
2 49201  87.8989 351.8144 0001897  88.6034 271.5312 13.13470437210060
ONEWEB-0336             
1 49202U 21083S   26008.97131570 -.00000347  00000+0 -98508-3 0  9998
2 49202  87.8988 351.8780 0002017  95.3165 264.8194 13.13469125210011
ONEWEB-0337             
1 49203U 21083T   26009.20986284 -.00000239  00000+0 -68813-3 0  9992
2 49203  87.8986 351.8420 0001740  91.8423 268.2905 13.13470952210042
ONEWEB-0338             
1 49204U 21083U   26009.17954395  .00000055  00000+0  10245-3 0  9997
2 49204  87.9223 306.1803 0001594  68.2086 291.9217 13.20772606215825
ONEWEB-0339             
1 49205U 21083V   26009.21846847 -.00000128  00000+0 -38670-3 0  9990
2 49205  87.8988 351.8233 0001606  84.5283 275.6029 13.13470249210028
ONEWEB-0340             
1 49206U 21083W   26009.24873774  .00000005  00000+0 -21116-4 0  9994
2 49206  87.9182   7.0091 0001844  88.9940 271.1403 13.18685533209024
ONEWEB-0341             
1 49207U 21083X   26009.25533926 -.00000026  00000+0 -99790-4 0  9995
2 49207  87.9179   7.0187 0001544 105.2679 254.8624 13.18684239209043
ONEWEB-0342             
1 49208U 21083Y   26009.26161195  .00000092  00000+0  19483-3 0  9993
2 49208  87.9232 306.1372 0001658  72.7922 287.3392 13.20771284215802
ONEWEB-0343             
1 49209U 21083Z   26009.03595817 -.00000010  00000+0 -57104-4 0  9996
2 49209  87.9181   7.0555 0001238  95.6549 264.4725 13.18685697209065
