[{"OBJECT_NAME":"ONEWEB-0324","OBJECT_ID":"2021-083H","EPOCH":"2026-01-09T06:00:33.870528","MEAN_MOTION":13.18684469,"ECCENTRICITY":0.00016757,"INCLINATION":87.9178,"RA_OF_ASC_NODE":7.0046,"ARG_OF_PERICENTER":92.7304,"MEAN_ANOMALY":267.402,"EPHEMERIS_TYPE":0,"CLASSIFICATION_TYPE":"U","NORAD_CAT_ID":49193,"ELEMENT_SET_NO":999,"REV_AT_EPOCH":20905,"BSTAR":-0.00026211381,"MEAN_MOTION_DOT":-9.0e-7,"MEAN_MOTION_DDOT":0},{"OBJECT_NAME":"ONEWEB-0325","OBJECT_ID":"2021-083J","EPOCH":"2026-01-09T06:05:18.376224","MEAN_MOTION":13.18685594,"ECCENTRICITY":0.00017831,"INCLINATION":87.9179,"RA_OF_ASC_NODE":7.0234,"ARG_OF_PERICENTER":85.6632,"MEAN_ANOMALY":274.4704,"EPHEMERIS_TYPE":0,"CLASSIFICATION_TYPE":"U","NORAD_CAT_ID":49194,"ELEMENT_SET_NO":999,"REV_AT_EPOCH":20906,"BSTAR":-4.904978e-6,"MEAN_MOTION_DOT":1.1e-7,"MEAN_MOTION_DDOT":0},{"OBJECT_NAME":"ONEWEB-0326","OBJECT_ID":"2021-083K","EPOCH":"2026-01-09T06:26:53.939040","MEAN_MOTION":13.18685373,"ECCENTRICITY":0.00020643,"INCLINATION":87.9179,"RA_OF_ASC_NODE":7.0073,"ARG_OF_PERICENTER":89.5091,"MEAN_ANOMALY":270.6278,"EPHEMERIS_TYPE":0,"CLASSIFICATION_TYPE":"U","NORAD_CAT_ID":49195,"ELEMENT_SET_NO":999,"REV_AT_EPOCH":20905,"BSTAR":0.00013836279,"MEAN_MOTION_DOT":6.7e-7,"MEAN_MOTION_DDOT":0},{"OBJECT_NAME":"ONEWEB-0327","OBJECT_ID":"2021-083L","EPOCH":"2026-01-09T00:58:43.068000","MEAN_MOTION":13.18684981,"ECCENTRICITY":0.00021275,"INCLINATION":87.917,"RA_OF_ASC_NODE":7.0697,"ARG_OF_PERICENTER":86.8304,"MEAN_ANOMALY":273.3072,"EPHEMERIS_TYPE":0,"CLASSIFICATION_TYPE":"U","NORAD_CAT_ID":49196,"ELEMENT_SET_NO":999,"REV_AT_EPOCH":20904,"BSTAR":1.5127967e-5,"MEAN_MOTION_DOT":1.9e-7,"MEAN_MOTION_DDOT":0},{"OBJECT_NAME":"ONEWEB-0328","OBJECT_ID":"2021-083M","EPOCH":"2026-01-09T05:43:51.421440","MEAN_MOTION":13.13470222,"ECCENTRICITY":0.00016715,"INCLINATION":87.8998,"RA_OF_ASC_NODE":351.7895,"ARG_OF_PERICENTER":88.7117,"MEAN_ANOMALY":271.4203,"EPHEMERIS_TYPE":0,"CLASSIFICATION_TYPE":"U","NORAD_CAT_ID":49197,"ELEMENT_SET_NO":999,"REV_AT_EPOCH":21003,"BSTAR":0.00098720449,"MEAN_MOTION_DOT":3.73e-6,"MEAN_MOTION_DDOT":0},{"OBJECT_NAME":"ONEWEB-0331","OBJECT_ID":"2021-083N","EPOCH":"2026-01-09T06:17:11.159808","MEAN_MOTION":13.18684393,"ECCENTRICITY":0.00020158,"INCLINATION":87.918,"RA_OF_ASC_NODE":7.0014,"ARG_OF_PERICENTER":96.1109,"MEAN_ANOMALY":264.0253,"EPHEMERIS_TYPE":0,"CLASSIFICATION_TYPE":"U","NORAD_CAT_ID":49198,"ELEMENT_SET_NO":999,"REV_AT_EPOCH":20906,"BSTAR":5.2738401e-5,"MEAN_MOTION_DOT":3.4e-7,"MEAN_MOTION_DDOT":0},{"OBJECT_NAME":"ONEWEB-0333","OBJECT_ID":"2021-083P","EPOCH":"2026-01-09T07:26:14.462304","MEAN_MOTION":13.13469778,"ECCENTRICITY":0.00017822,"INCLINATION":87.898,"RA_OF_ASC_NODE":351.8239,"ARG_OF_PERICENTER":83.5055,"MEAN_ANOMALY":276.6277,"EPHEMERIS_TYPE":0,"CLASSIFICATION_TYPE":"U","NORAD_CAT_ID":49199,"ELEMENT_SET_NO":999,"REV_AT_EPOCH":21005,"BSTAR":0.00065523948,"MEAN_MOTION_DOT":2.52e-6,"MEAN_MOTION_DDOT":0},{"OBJECT_NAME":"ONEWEB-0334","OBJECT_ID":"2021-083Q","EPOCH":"2026-01-09T06:43:59.202912","MEAN_MOTION":13.20771082,"ECCENTRICITY":0.00016518,"INCLINATION":87.9221,"RA_OF_ASC_NODE":306.157,"ARG_OF_PERICENTER":43.3986,"MEAN_ANOMALY":316.7277,"EPHEMERIS_TYPE":0,"CLASSIFICATION_TYPE":"U","NORAD_CAT_ID":49200,"ELEMENT_SET_NO":999,"REV_AT_EPOCH":21581,"BSTAR":0.00019975757,"MEAN_MOTION_DOT":9.4e-7,"MEAN_MOTION_DDOT":0},{"OBJECT_NAME":"ONEWEB-0335","OBJECT_ID":"2021-083R","EPOCH":"2026-01-09T07:18:55.864800","MEAN_MOTION":13.13470437,"ECCENTRICITY":0.00018973,"INCLINATION":87.8989,"RA_OF_ASC_NODE":351.8144,"ARG_OF_PERICENTER":88.6034,"MEAN_ANOMALY":271.5312,"EPHEMERIS_TYPE":0,"CLASSIFICATION_TYPE":"U","NORAD_CAT_ID":49201,"ELEMENT_SET_NO":999,"REV_AT_EPOCH":21006,"BSTAR":0.00031377986,"MEAN_MOTION_DOT":1.27e-6,"MEAN_MOTION_DDOT":0},{"OBJECT_NAME":"ONEWEB-0336","OBJECT_ID":"2021-083S","EPOCH":"2026-01-08T23:18:41.676480","MEAN_MOTION":13.13469125,"ECCENTRICITY":0.00020175,"INCLINATION":87.8988,"RA_OF_ASC_NODE":351.878,"ARG_OF_PERICENTER":95.3165,"MEAN_ANOMALY":264.8194,"EPHEMERIS_TYPE":0,"CLASSIFICATION_TYPE":"U","NORAD_CAT_ID":49202,"ELEMENT_SET_NO":999,"REV_AT_EPOCH":21001,"BSTAR":-0.00098507964,"MEAN_MOTION_DOT":-3.47e-6,"MEAN_MOTION_DDOT":0},{"OBJECT_NAME":"ONEWEB-0337","OBJECT_ID":"2021-083T","EPOCH":"2026-01-09T05:02:12.149376","MEAN_MOTION":13.13470952,"ECCENTRICITY":0.000174,"INCLINATION":87.8986,"RA_OF_ASC_NODE":351.842,"ARG_OF_PERICENTER":91.8423,"MEAN_ANOMALY":268.2905,"EPHEMERIS_TYPE":0,"CLASSIFICATION_TYPE":"U","NORAD_CAT_ID":49203,"ELEMENT_SET_NO":999,"REV_AT_EPOCH":21004,"BSTAR":-0.00068812895,"MEAN_MOTION_DOT":-2.39e-6,"MEAN_MOTION_DDOT":0},{"OBJECT_NAME":"ONEWEB-0338","OBJECT_ID":"2021-083U","EPOCH":"2026-01-09T04:18:32.597280","MEAN_MOTION":13.20772606,"ECCENTRICITY":0.00015942,"INCLINATION":87.9223,"RA_OF_ASC_NODE":306.1803,"ARG_OF_PERICENTER":68.2086,"MEAN_ANOMALY":291.9217,"EPHEMERIS_TYPE":0,"CLASSIFICATION_TYPE":"U","NORAD_CAT_ID":49204,"ELEMENT_SET_NO":999,"REV_AT_EPOCH":21582,"BSTAR":0.00010245406,"MEAN_MOTION_DOT":5.5e-7,"MEAN_MOTION_DDOT":0},{"OBJECT_NAME":"ONEWEB-0339","OBJECT_ID":"2021-083V","EPOCH":"2026-01-09T05:14:35.675808","MEAN_MOTION":13.13470249,"ECCENTRICITY":0.00016061,"INCLINATION":87.8988,"RA_OF_ASC_NODE":351.8233,"ARG_OF_PERICENTER":84.5283,"MEAN_ANOMALY":275.6029,"EPHEMERIS_TYPE":0,"CLASSIFICATION_TYPE":"U","NORAD_CAT_ID":49205,"ELEMENT_SET_NO":999,"REV_AT_EPOCH":21002,"BSTAR":-0.0003866962,"MEAN_MOTION_DOT":-1.28e-6,"MEAN_MOTION_DDOT":0},{"OBJECT_NAME":"ONEWEB-0340","OBJECT_ID":"2021-083W","EPOCH":"2026-01-09T05:58:10.940736","MEAN_MOTION":13.18685533,"ECCENTRICITY":0.00018447,"INCLINATION":87.9182,"RA_OF_ASC_NODE":7.0091,"ARG_OF_PERICENTER":88.994,"MEAN_ANOMALY":271.1403,"EPHEMERIS_TYPE":0,"CLASSIFICATION_TYPE":"U","NORAD_CAT_ID":49206,"ELEMENT_SET_NO":999,"REV_AT_EPOCH":20902,"BSTAR":-2.11159e-5,"MEAN_MOTION_DOT":5.0e-8,"MEAN_MOTION_DDOT":0},{"OBJECT_NAME":"ONEWEB-0341","OBJECT_ID":"2021-083X","EPOCH":"2026-01-09T06:07:41.312064","MEAN_MOTION":13.18684239,"ECCENTRICITY":0.00015447,"INCLINATION":87.9179,"RA_OF_ASC_NODE":7.0187,"ARG_OF_PERICENTER":105.2679,"MEAN_ANOMALY":254.8624,"EPHEMERIS_TYPE":0,"CLASSIFICATION_TYPE":"U","NORAD_CAT_ID":49207,"ELEMENT_SET_NO":999,"REV_AT_EPOCH":20904,"BSTAR":-9.979011e-5,"MEAN_MOTION_DOT":-2.6e-7,"MEAN_MOTION_DDOT":0},{"OBJECT_NAME":"ONEWEB-0342","OBJECT_ID":"2021-083Y","EPOCH":"2026-01-09T06:16:43.272480","MEAN_MOTION":13.20771284,"ECCENTRICITY":0.00016584,"INCLINATION":87.9232,"RA_OF_ASC_NODE":306.1372,"ARG_OF_PERICENTER":72.7922,"MEAN_ANOMALY":287.3392,"EPHEMERIS_TYPE":0,"CLASSIFICATION_TYPE":"U","NORAD_CAT_ID":49208,"ELEMENT_SET_NO":999,"REV_AT_EPOCH":21580,"BSTAR":0.00019483482,"MEAN_MOTION_DOT":9.2e-7,"MEAN_MOTION_DDOT":0},{"OBJECT_NAME":"ONEWEB-0343","OBJECT_ID":"2021-083Z","EPOCH":"2026-01-09T00:51:46.785888","MEAN_MOTION":13.18685697,"ECCENTRICITY":0.00012382,"INCLINATION":87.9181,"RA_OF_ASC_NODE":7.0555,"ARG_OF_PERICENTER":95.6549,"MEAN_ANOMALY":264.4725,"EPHEMERIS_TYPE":0,"CLASSIFICATION_TYPE":"U","NORAD_CAT_ID":49209,"ELEMENT_SET_NO":999,"REV_AT_EPOCH":20906,"BSTAR":-5.7104297e-5,"MEAN_MOTION_DOT":-1.0e-7,"MEAN_MOTION_DDOT":0}]
